[{"OBJECT_NAME":"NETSAT-2","OBJECT_ID":"2020-068X","EPOCH":"2026-03-09T22:24:39.507840","MEAN_MOTION":15.41593314,"ECCENTRICITY":0.00044399,"INCLINATION":97.8659,"RA_OF_ASC_NODE":69.0583,"ARG_OF_PERICENTER":21.2445,"MEAN_ANOMALY":338.8984,"EPHEMERIS_TYPE":0,"CLASSIFICATION_TYPE":"U","NORAD_CAT_ID":46507,"ELEMENT_SET_NO":999,"REV_AT_EPOCH":30042,"BSTAR":0.00064543032,"MEAN_MOTION_DOT":0.00027118,"MEAN_MOTION_DDOT":0},{"OBJECT_NAME":"STARLINK-2728","OBJECT_ID":"2021-040BC","EPOCH":"2026-03-10T00:00:02.999808","MEAN_MOTION":15.27150293,"ECCENTRICITY":0.0001279,"INCLINATION":53.146,"RA_OF_ASC_NODE":189.4329,"ARG_OF_PERICENTER":95.8965,"MEAN_ANOMALY":314.5464,"EPHEMERIS_TYPE":0,"CLASSIFICATION_TYPE":"U","NORAD_CAT_ID":48478,"ELEMENT_SET_NO":999,"REV_AT_EPOCH":574,"BSTAR":0.058943655,"MEAN_MOTION_DOT":0.01738174,"MEAN_MOTION_DDOT":0}]
